*******************************************************************************
JPL/HORIZONS                 266 Aline (A887 KA)           2020-Jun-22 08:45:57
Rec #:     266 (+COV) Soln.date: 2020-Feb-22_15:22:27   # obs: 2570 (1891-2019)
 
IAU76/J2000 helio. ecliptic osc. elements (au, days, deg., period=Julian yrs):
 
  EPOCH=  2455134.5 ! 2009-Oct-30.00 (TDB)         Residual RMS= .29928
   EC= .1579983331197638   QR= 2.359817821189352   TP= 2455634.3146633133
   OM= 235.984005664724    W=  151.0314083892898   IN= 13.39255970886464
   A= 2.80262844363823     MA= 255.0059280797749   ADIST= 3.245439066087109
   PER= 4.69198            N= .210066004           ANGMOM= .028436402
   DAN= 3.17099            DDN= 2.4008             L= 27.6798432
   B= 6.4410726            MOID= 1.3743            TP= 2011-Mar-13.8146633133
 
Asteroid physical parameters (km, seconds, rotational period in hours):
   GM= n.a.                RAD= 54.747             ROTPER= 13.018
   H= 8.7                  G= .150                 B-V= .707
                           ALBEDO= .027            STYP= Ch
 
ASTEROID comments: 
1: soln ref.= JPL#101, OCC=0
2: source=ORB
*******************************************************************************
 
 
*******************************************************************************
Ephemeris / WWW_USER Mon Jun 22 08:45:57 2020 Pasadena, USA      / Horizons
*******************************************************************************
Target body name: 266 Aline (A887 KA)             {source: JPL#101}
Center body name: Solar System Barycenter (0)     {source: DE431}
Center-site name: BODY CENTER
*******************************************************************************
Start time      : A.D. 1969-Jun-28 00:00:00.0000 TDB
Stop  time      : A.D. 2071-May-04 00:00:00.0000 TDB
Step-size       : 7200 minutes
*******************************************************************************
Center geodetic : 0.00000000,0.00000000,0.0000000 {E-lon(deg),Lat(deg),Alt(km)}
Center cylindric: 0.00000000,0.00000000,0.0000000 {E-lon(deg),Dxy(km),Dz(km)}
Center radii    : (undefined)                                                  
Small perturbers: Yes                             {source: SB431-N16}
Output units    : AU-D
Output type     : GEOMETRIC cartesian states
Output format   : 2 (position and velocity)
Reference frame : Ecliptic of J2000.0
*******************************************************************************
Initial IAU76/J2000 heliocentric ecliptic osculating elements (au, days, deg.):
  EPOCH=  2455134.5 ! 2009-Oct-30.00 (TDB)         Residual RMS= .29928        
   EC= .1579983331197638   QR= 2.359817821189352   TP= 2455634.3146633133      
   OM= 235.984005664724    W=  151.0314083892898   IN= 13.39255970886464       
  Equivalent ICRF heliocentric equatorial cartesian coordinates (au, au/d):
   X=-2.611339776105677E-01  Y=-2.839173253364068E+00  Z=-8.593106137416797E-01
  VX= 9.457276723873495E-03 VY= 1.831333113294555E-05 VZ= 1.928431621693638E-03
Asteroid physical parameters (km, seconds, rotational period in hours):        
   GM= n.a.                RAD= 54.747             ROTPER= 13.018              
   H= 8.7                  G= .150                 B-V= .707                   
                           ALBEDO= .027            STYP= Ch                    
*******************************************************************************
            JDTDB,            Calendar Date (TDB),        delta-T,                      X,                      Y,                      Z,                     VX,                     VY,                     VZ,
******************************************************************************************************************************************************************************************************************
$$SOE
2469240.500000000, A.D. 2048-Jun-13 00:00:00.0000,      69.184616,  2.357464153096251E+00, -3.375661811225729E-01,  5.091776315651823E-01,  9.462119604526232E-04,  1.159331945849380E-02, -1.384957808973380E-03,
2469245.500000000, A.D. 2048-Jun-18 00:00:00.0000,      69.184486,  2.361590729229421E+00, -2.795188129522035E-01,  5.021231050089690E-01,  7.041112125681187E-04,  1.162466679018857E-02, -1.436783090826772E-03,
2469250.500000000, A.D. 2048-Jun-23 00:00:00.0000,      69.184351,  2.364502322160924E+00, -2.213291975660293E-01,  4.948105334259327E-01,  4.602448017336648E-04,  1.165020368665098E-02, -1.488168700395485E-03,
2469255.500000000, A.D. 2048-Jun-28 00:00:00.0000,      69.184213,  2.366190499703263E+00, -1.630266026332221E-01,  4.872422222195809E-01,  2.147720325177454E-04,  1.166984483721038E-02, -1.539071772959753E-03,
2469260.500000000, A.D. 2048-Jul-03 00:00:00.0000,      69.184074,  2.366647638842610E+00, -1.046407088139017E-01,  4.794206917691137E-01, -3.214276178120811E-05,  1.168351040881382E-02, -1.589449196330238E-03,
2469265.500000000, A.D. 2048-Jul-08 00:00:00.0000,      69.183935,  2.365866950389254E+00, -4.620158158711730E-02,  4.713486784630908E-01, -2.803304202579779E-04,  1.169112635838546E-02, -1.639257692942553E-03,
2469270.500000000, A.D. 2048-Jul-13 00:00:00.0000,      69.183798,  2.363842502565076E+00,  1.226035846395880E-02,  4.630291353137230E-01, -5.296171783579287E-04,  1.169262473740291E-02, -1.688453905404080E-03,
2469275.500000000, A.D. 2048-Jul-18 00:00:00.0000,      69.183662,  2.360569243416609E+00,  7.071436686728463E-02,  4.544652321365469E-01, -7.798249134103152E-04,  1.168794398713496E-02, -1.736994484642765E-03,
2469280.500000000, A.D. 2048-Jul-23 00:00:00.0000,      69.183527,  2.356043021949195E+00,  1.291294079244702E-01,  4.456603552841401E-01, -1.030771410601422E-03,  1.167702922181554E-02, -1.784836180135358E-03,
2469285.500000000, A.D. 2048-Jul-28 00:00:00.0000,      69.183395,  2.350260607879390E+00,  1.874741887537446E-01,  4.366181069229882E-01, -1.282270649866020E-03,  1.165983249737240E-02, -1.831935932479368E-03,
2469290.500000000, A.D. 2048-Aug-02 00:00:00.0000,      69.183267,  2.343219709899454E+00,  2.457171946379399E-01,  4.273423038414295E-01, -1.534133114085885E-03,  1.163631306455611E-02, -1.878250968327461E-03,
2469295.500000000, A.D. 2048-Aug-07 00:00:00.0000,      69.183146,  2.334918992349596E+00,  3.038267255968291E-01,  4.178369757782403E-01, -1.786166117552579E-03,  1.160643760530403E-02, -1.923738897075064E-03,
2469300.500000000, A.D. 2048-Aug-12 00:00:00.0000,      69.183032,  2.325358090200346E+00,  3.617709340959031E-01,  4.081063632647829E-01, -2.038174153217537E-03,  1.157018045065292E-02, -1.968357808658485E-03,
2469305.500000000, A.D. 2048-Aug-17 00:00:00.0000,      69.182924,  2.314537622254400E+00,  4.195178637949282E-01,  3.981549149763908E-01, -2.289959257451031E-03,  1.152752377846203E-02, -2.012066371988865E-03,
2469310.500000000, A.D. 2048-Aug-22 00:00:00.0000,      69.182822,  2.302459202483474E+00,  4.770354892313386E-01,  3.879872845908873E-01, -2.541321391059911E-03,  1.147845778937663E-02, -2.054823933593416E-03,
2469315.500000000, A.D. 2048-Aug-27 00:00:00.0000,      69.182728,  2.289125449422289E+00,  5.342917563260731E-01,  3.776083271543090E-01, -2.792058835180968E-03,  1.142298085961700E-02, -2.096590616014587E-03,
2469320.500000000, A.D. 2048-Sep-01 00:00:00.0000,      69.182644,  2.274539993549070E+00,  5.912546235927155E-01,  3.670230949562244E-01, -3.041968600499742E-03,  1.136109966930765E-02, -2.137327415491806E-03,
2469325.500000000, A.D. 2048-Sep-06 00:00:00.0000,      69.182571,  2.258707482590167E+00,  6.478921039246905E-01,  3.562368329194573E-01, -3.290846848096809E-03,  1.129282930518828E-02, -2.176996298435898E-03,
2469330.500000000, A.D. 2048-Sep-11 00:00:00.0000,      69.182510,  2.241633584695155E+00,  7.041723068298179E-01,  3.452549735114915E-01, -3.538489320089659E-03,  1.121819333668810E-02, -2.215560296198556E-03,
2469335.500000000, A.D. 2048-Sep-16 00:00:00.0000,      69.182458,  2.223324989438298E+00,  7.600634809768105E-01,  3.340831311873337E-01, -3.784691778109639E-03,  1.113722386449960E-02, -2.252983597635554E-03,
2469340.500000000, A.D. 2048-Sep-21 00:00:00.0000,      69.182416,  2.203789406612364E+00,  8.155340569143761E-01,  3.227270963761188E-01, -4.029250447524111E-03,  1.104996154093761E-02, -2.289231638964865E-03,
2469345.500000000, A.D. 2048-Sep-26 00:00:00.0000,      69.182385,  2.183035562791566E+00,  8.705526898203135E-01,  3.111928290261941E-01, -4.271962465186494E-03,  1.095645556148055E-02, -2.324271190441531E-03,
2469350.500000000, A.D. 2048-Oct-01 00:00:00.0000,      69.182367,  2.161073195651591E+00,  9.250883021349648E-01,  2.994864517256273E-01, -4.512626328505315E-03,  1.085676362685047E-02, -2.358070439462576E-03,
2469355.500000000, A.D. 2048-Oct-06 00:00:00.0000,      69.182362,  2.137913046044637E+00,  9.791101259298953E-01,  2.876142424165448E-01, -4.751042344181355E-03,  1.075095187494362E-02, -2.390599069911585E-03,
2469360.500000000, A.D. 2048-Oct-11 00:00:00.0000,      69.182370,  2.113566847833622E+00,  1.032587744860806E+00,  2.755826267225632E-01, -4.987013075596840E-03,  1.063909478274318E-02, -2.421828337495807E-03,
2469365.500000000, A.D. 2048-Oct-16 00:00:00.0000,      69.182390,  2.088047315497164E+00,  1.085491135558353E+00,  2.633981699112552E-01, -5.220343786487904E-03,  1.052127503989332E-02, -2.451731140201484E-03,
2469370.500000000, A.D. 2048-Oct-21 00:00:00.0000,      69.182420,  2.061368129534764E+00,  1.137790708318004E+00,  2.510675685185015E-01, -5.450842876514147E-03,  1.039758339464987E-02, -2.480282083028003E-03,
2469375.500000000, A.D. 2048-Oct-26 00:00:00.0000,      69.182461,  2.033543919719611E+00,  1.189457346948729E+00,  2.385976416633538E-01, -5.678322306569278E-03,  1.026811847135717E-02, -2.507457537107778E-03,
